satname,norad_id,inclination_deg,eccentricity,mean_motion_rev_per_day,perigee_km,apogee_km,l1,l2
STARLINK-1523,46028,53.0548,0.0001285,15.06403929,546.3096104030064,548.0894218876547,1 46028U 20055B   26044.95828067 -.00000702  00000+0 -28252-4 0  9996,2 46028  53.0548 233.1523 0001285  86.5035 273.6102 15.06403929305322
STARLINK-1526,46029,53.0554,0.0001576,15.06390078,546.1505278808654,548.3334073314554,1 46029U 20055C   26045.54803929  .00001501  00000+0  11966-3 0  9992,2 46029  53.0554 230.5036 0001576  90.7341 269.3829 15.06390078305407
STARLINK-1555,46032,53.0551,0.0001346,15.06397135,546.2881856667609,548.1524918623563,1 46032U 20055F   26045.53328875  .00001459  00000+0  11686-3 0  9998,2 46032  53.0551 230.5698 0001346  82.6793 277.4349 15.06397135305406
STARLINK-1556,46033,53.0547,0.0001362,15.06397395,546.2763083385871,548.1627754606016,1 46033U 20055G   26045.64755866  .00000650  00000+0  62531-4 0  9993,2 46033  53.0547 230.0564 0001362  92.1210 267.9935 15.06397395305398
STARLINK-1557,46034,53.0557,0.0001372,15.0640141,546.2570792654797,548.1573937239727,1 46034U 20055H   26045.65123714  .00001594  00000+0  12585-3 0  9997,2 46034  53.0557 230.0414 0001372  93.4480 266.6665 15.06401410305398
STARLINK-1558,46035,53.0552,0.0001673,15.06398723,546.0568602935937,548.3740832306457,1 46035U 20055J   26045.52591851  .00002519  00000+0  18793-3 0  9990,2 46035  53.0552 230.6033 0001673 104.3260 255.7915 15.06398723305400
STARLINK-1560,46036,53.0525,0.0001661,15.06407383,546.0386335620369,548.3392268360476,1 46036U 20055K   26045.51117659 -.00000209  00000+0  48821-5 0  9992,2 46036  53.0525 230.6715 0001661  81.6785 278.4392 15.06407383305408
STARLINK-1567,46038,53.0553,0.0001537,15.063972,546.1557121559481,548.2845669406461,1 46038U 20055M   26045.65492717  .00000628  00000+0  61082-4 0  9997,2 46038  53.0553 230.0234 0001537  91.3311 268.7854 15.06397200305418
STARLINK-1569,46039,53.0555,0.0001501,15.06387966,546.2089403059545,548.2879410152409,1 46039U 20055N   26045.52960286  .00001478  00000+0  11814-3 0  9996,2 46039  53.0555 230.5863 0001501 100.1597 259.9561 15.06387966305392
STARLINK-1582,46043,53.0554,0.0001309,15.06397603,546.3123753199006,548.1254334956748,1 46043U 20055S   26045.53697483  .00000705  00000+0  66203-4 0  9993,2 46043  53.0554 230.5535 0001309  89.5572 270.5567 15.06397603305395
STARLINK-1591,46045,53.0557,0.0001485,15.06398672,546.187213204732,548.2440429352691,1 46045U 20055U   26044.89931265  .00000703  00000+0  66075-4 0  9997,2 46045  53.0557 233.4171 0001485  87.6484 272.4675 15.06398672305280
STARLINK-1524,46047,53.0719,0.0001915,15.11450981,530.4509075014876,533.0974034740393,1 46047U 20055W   26045.66668981  .00007232  00000+0  43965-3 0  9993,2 46047  53.0719 219.9328 0001915  71.3570  50.2500 15.11450981  5698
STARLINK-1527,46048,53.056,0.0004455,15.07356702,541.1970178460369,547.3648922439825,1 46048U 20055X   26045.57739296  .00118674  00000+0  76517-2 0  9993,2 46048  53.0560 220.3599 0004455 115.1747 244.9705 15.07356702305529
STARLINK-1540,46051,53.0739,8.02e-05,15.11660358,530.5819652341352,531.6902126375999,1 46051U 20055AA  26045.66668981  .00008960  00000+0  53732-3 0  9990,2 46051  53.0739 219.9234 0000802 141.0365 184.9449 15.11660358  5803
STARLINK-1541,46052,53.0813,9.83e-05,15.13141283,525.9485030743526,527.3059797242122,1 46052U 20055AB  26045.66668981  .00007186  00000+0  41715-3 0  9998,2 46052  53.0813 219.8430 0000983 119.6412 331.4500 15.13141283  5493
STARLINK-1543,46053,53.0722,5.66e-05,15.11252227,531.9888499948484,532.7711205175783,1 46053U 20055AC  26045.66668981  .00004005  00000+0  25260-3 0  9993,2 46053  53.0722 219.9292 0000566 105.8757 276.9344 15.11252227  5742
STARLINK-1548,46054,53.0743,4.95e-05,15.1168645,530.7145800330009,531.3985901979277,1 46054U 20055AD  26045.66668981  .00007231  00000+0  43674-3 0  9997,2 46054  53.0743 219.9155 0000495 135.3671 215.0861 15.11686450  5745
STARLINK-1554,46055,53.0729,7.75e-05,15.11405314,531.3778141889361,532.4488719921137,1 46055U 20055AE  26045.66668981  .00007077  00000+0  43111-3 0  9992,2 46055  53.0729 219.9120 0000775 118.3010 314.3685 15.11405314  5667
STARLINK-1564,46058,53.0731,4.47e-05,15.11389704,531.6520407504968,532.2698035047342,1 46058U 20055AH  26045.66668981  .00004464  00000+0  27851-3 0  9995,2 46058  53.0731 220.3877 0000447 141.7515 223.4057 15.11389704  5807
STARLINK-1570,46059,53.0558,0.0004616,15.07431216,540.8575484651828,547.2481141174303,1 46059U 20055AJ  26045.63255863  .00126329  00000+0  81188-2 0  9991,2 46059  53.0558 220.1123 0004616 118.4730 241.6725 15.07431216305515
STARLINK-1572,46060,53.0687,0.0002334,15.10475134,533.1364798914001,536.3634155185891,1 46060U 20055AK  26045.66668981  .00008669  00000+0  53762-3 0  9999,2 46060  53.0687 219.9388 0002334  99.8993 117.1061 15.10475134  5818
STARLINK-1573,46061,53.066,0.0002067,15.10089097,534.4988939090608,537.3571683929385,1 46061U 20055AL  26045.66668981  .00011303  00000+0  70277-3 0  9999,2 46061  53.0660 219.9931 0002067  96.9886 131.0991 15.10089097  5542
STARLINK-1577,46063,53.0665,0.0001342,15.10332485,534.2574486526937,536.1129843356011,1 46063U 20055AN  26045.66668981  .00001955  00000+0  13547-3 0  9990,2 46063  53.0665 219.9536 0001342  79.4660  10.2873 15.10332485  5696
STARLINK-1583,46064,53.0646,0.000163,15.09963203,535.1852798474683,537.4393903307073,1 46064U 20055AP  26045.66668981  .00010056  00000+0  62944-3 0  9998,2 46064  53.0646 219.9598 0001630 124.0734 143.0712 15.09963203  5742
STARLINK-1525,46066,53.0561,0.0001248,15.06394872,546.3629891028286,548.0915600257595,1 46066U 20055AR  26045.61714309 -.00000606  00000+0 -21819-4 0  9990,2 46066  53.0561 200.1941 0001248  91.0015 269.1117 15.06394872305822
STARLINK-1536,46070,53.0572,0.0001199,15.06386127,546.4237226213781,548.0844314016449,1 46070U 20055AV  26045.59502589  .00000443  00000+0  48660-4 0  9997,2 46070  53.0572 200.2918 0001199  89.7744 270.3383 15.06386127305836
STARLINK-1542,46073,53.0562,0.0001335,15.06392425,546.310237187693,548.1593114514371,1 46073U 20055AY  26045.65401554  .00003601  00000+0  26057-3 0  9991,2 46073  53.0562 200.0279 0001335  84.6674 275.4467 15.06392425305831
STARLINK-1549,46074,53.056,0.0001234,15.06395633,546.3703525329811,548.0795318603159,1 46074U 20055AZ  26045.63925563  .00001635  00000+0  12864-3 0  9997,2 46074  53.0560 200.0948 0001234  85.5622 274.5508 15.06395633305823
